{"type":"FeatureCollection","features":[{"type":"Feature","properties":{"id":"FLOOD-very_high","flood_risk":"very_high","dist_min_m":700,"dist_max_m":2200,"note":"modelled","label":"Modelled flood risk: very high (700–2200 m from channel)"},"geometry":{"type":"Polygon","coordinates":[[[105.51749,9.90045],[105.58846,9.95617],[105.64968,9.99195],[105.6984,10.02113],[105.73451,10.0512],[105.78014,10.07721],[105.83467,10.10695],[105.88891,10.14148],[105.94874,10.18136],[105.97126,10.14864],[105.91109,10.10852],[105.85533,10.07305],[105.79986,10.04279],[105.75749,10.0188],[105.7216,9.98887],[105.67032,9.95805],[105.61154,9.92383],[105.54251,9.86955],[105.51749,9.90045]],[[105.52602,9.88992],[105.59633,9.94514],[105.65672,9.98039],[105.70631,10.01013],[105.74234,10.04016],[105.78686,10.06548],[105.84171,10.09539],[105.89647,10.13024],[105.95642,10.17021],[105.96358,10.15979],[105.90353,10.11976],[105.84829,10.08461],[105.79314,10.05452],[105.74966,10.02984],[105.71369,9.99987],[105.66328,9.96961],[105.60367,9.93486],[105.53398,9.88008],[105.52602,9.88992]]]}},{"type":"Feature","properties":{"id":"FLOOD-high","flood_risk":"high","dist_min_m":2200,"dist_max_m":4200,"note":"modelled","label":"Modelled flood risk: high (2200–4200 m from channel)"},"geometry":{"type":"Polygon","coordinates":[[[105.50612,9.9145],[105.57797,9.97087],[105.64029,10.00735],[105.68785,10.03579],[105.72407,10.06594],[105.77117,10.09286],[105.82528,10.12235],[105.87883,10.15645],[105.9385,10.19624],[105.9815,10.13376],[105.92117,10.09355],[105.86472,10.05765],[105.80883,10.02714],[105.76793,10.00406],[105.73215,9.97421],[105.67971,9.94265],[105.62203,9.90913],[105.55388,9.8555],[105.50612,9.9145]],[[105.51749,9.90045],[105.58846,9.95617],[105.64968,9.99195],[105.6984,10.02113],[105.73451,10.0512],[105.78014,10.07721],[105.83467,10.10695],[105.88891,10.14148],[105.94874,10.18136],[105.97126,10.14864],[105.91109,10.10852],[105.85533,10.07305],[105.79986,10.04279],[105.75749,10.0188],[105.7216,9.98887],[105.67032,9.95805],[105.61154,9.92383],[105.54251,9.86955],[105.51749,9.90045]]]}},{"type":"Feature","properties":{"id":"FLOOD-medium","flood_risk":"medium","dist_min_m":4200,"dist_max_m":6600,"note":"modelled","label":"Modelled flood risk: medium (4200–6600 m from channel)"},"geometry":{"type":"Polygon","coordinates":[[[105.49247,9.93135],[105.56539,9.98851],[105.62903,10.02584],[105.6752,10.05338],[105.71153,10.08361],[105.76041,10.11164],[105.81401,10.14084],[105.86674,10.17443],[105.92622,10.21409],[105.99378,10.11591],[105.93326,10.07557],[105.87599,10.03916],[105.81959,10.00836],[105.78047,9.98639],[105.7448,9.95662],[105.69097,9.92416],[105.63461,9.89149],[105.56753,9.83865],[105.49247,9.93135]],[[105.50612,9.9145],[105.57797,9.97087],[105.64029,10.00735],[105.68785,10.03579],[105.72407,10.06594],[105.77117,10.09286],[105.82528,10.12235],[105.87883,10.15645],[105.9385,10.19624],[105.9815,10.13376],[105.92117,10.09355],[105.86472,10.05765],[105.80883,10.02714],[105.76793,10.00406],[105.73215,9.97421],[105.67971,9.94265],[105.62203,9.90913],[105.55388,9.8555],[105.50612,9.9145]]]}},{"type":"Feature","properties":{"id":"FLOOD-low","flood_risk":"low","dist_min_m":6600,"dist_max_m":9000,"note":"modelled","label":"Modelled flood risk: low (6600–9000 m from channel)"},"geometry":{"type":"Polygon","coordinates":[[[105.47883,9.94821],[105.5528,10.00614],[105.61777,10.04433],[105.66254,10.07097],[105.699,10.10129],[105.74965,10.13041],[105.80274,10.15932],[105.85464,10.1924],[105.91394,10.23194],[106.00606,10.09806],[105.94536,10.0576],[105.88726,10.02068],[105.83035,9.98959],[105.793,9.96871],[105.75746,9.93903],[105.70223,9.90567],[105.6472,9.87386],[105.58117,9.82179],[105.47883,9.94821]],[[105.49247,9.93135],[105.56539,9.98851],[105.62903,10.02584],[105.6752,10.05338],[105.71153,10.08361],[105.76041,10.11164],[105.81401,10.14084],[105.86674,10.17443],[105.92622,10.21409],[105.99378,10.11591],[105.93326,10.07557],[105.87599,10.03916],[105.81959,10.00836],[105.78047,9.98639],[105.7448,9.95662],[105.69097,9.92416],[105.63461,9.89149],[105.56753,9.83865],[105.49247,9.93135]]]}}]}
