{"type":"FeatureCollection","features":[{"type":"Feature","properties":{"kind":"river","name":"Zambezi River"},"geometry":{"type":"LineString","coordinates":[[34.9,-17.55],[35.1,-17.72],[35.3,-17.85],[35.55,-17.97],[35.8,-18.12],[35.98,-18.3],[36.18,-18.48],[36.38,-18.58]]}},{"type":"Feature","properties":{"kind":"flood","scenario":"current","depth_class":"deep","label":"Modelled inundation — current"},"geometry":{"type":"Polygon","coordinates":[[[34.91881,-17.52988],[35.12042,-17.6953],[35.32379,-17.81121],[35.58264,-17.91532],[35.8475,-18.06409],[36.04015,-18.24277],[36.24749,-18.39327],[36.44632,-18.46082],[36.31368,-18.69918],[36.11251,-18.56673],[35.91985,-18.35723],[35.7525,-18.17591],[35.51736,-18.02468],[35.27621,-17.88879],[35.07958,-17.7447],[34.88119,-17.57012],[34.91881,-17.52988]]]}},{"type":"Feature","properties":{"kind":"flood","scenario":"projected","depth_class":"shallow","label":"Modelled inundation — projected"},"geometry":{"type":"Polygon","coordinates":[[[34.93135,-17.51647],[35.135,-17.67765],[35.34044,-17.78405],[35.60129,-17.88407],[35.87719,-18.02914],[36.08025,-18.20462],[36.28687,-18.34267],[36.4817,-18.39725],[36.2783,-18.76275],[36.07313,-18.61733],[35.87975,-18.39538],[35.72281,-18.21086],[35.49871,-18.05593],[35.25956,-17.91595],[35.065,-17.76235],[34.86865,-17.58353],[34.93135,-17.51647]]]}}]}
