{"type":"FeatureCollection","features":[{"type":"Feature","properties":{"id":"F000","name":"Farm cluster 000","crop":"maize","area_ha":4.1,"households":24,"dist_river_m":3042,"flood_exposure":"high"},"geometry":{"type":"Point","coordinates":[35.91127,-18.27096]}},{"type":"Feature","properties":{"id":"F001","name":"Farm cluster 001","crop":"rice","area_ha":0.9,"households":7,"dist_river_m":8641,"flood_exposure":"high"},"geometry":{"type":"Point","coordinates":[35.85944,-18.29217]}},{"type":"Feature","properties":{"id":"F002","name":"Farm cluster 002","crop":"sorghum","area_ha":3.9,"households":24,"dist_river_m":11980,"flood_exposure":"medium"},"geometry":{"type":"Point","coordinates":[35.37541,-17.76568]}},{"type":"Feature","properties":{"id":"F003","name":"Farm cluster 003","crop":"rice","area_ha":2.1,"households":37,"dist_river_m":16272,"flood_exposure":"medium"},"geometry":{"type":"Point","coordinates":[35.25801,-17.64577]}},{"type":"Feature","properties":{"id":"F004","name":"Farm cluster 004","crop":"cassava","area_ha":2.4,"households":21,"dist_river_m":21645,"flood_exposure":"low"},"geometry":{"type":"Point","coordinates":[36.08029,-18.11804]}},{"type":"Feature","properties":{"id":"F005","name":"Farm cluster 005","crop":"rice","area_ha":4.2,"households":22,"dist_river_m":5410,"flood_exposure":"high"},"geometry":{"type":"Point","coordinates":[35.83061,-18.22118]}},{"type":"Feature","properties":{"id":"F006","name":"Farm cluster 006","crop":"rice","area_ha":1.4,"households":6,"dist_river_m":11123,"flood_exposure":"medium"},"geometry":{"type":"Point","coordinates":[36.12238,-18.29046]}},{"type":"Feature","properties":{"id":"F007","name":"Farm cluster 007","crop":"sorghum","area_ha":3.4,"households":8,"dist_river_m":10118,"flood_exposure":"medium"},"geometry":{"type":"Point","coordinates":[35.87487,-18.06296]}},{"type":"Feature","properties":{"id":"F008","name":"Farm cluster 008","crop":"sorghum","area_ha":2.5,"households":24,"dist_river_m":14067,"flood_exposure":"medium"},"geometry":{"type":"Point","coordinates":[35.49426,-17.80173]}},{"type":"Feature","properties":{"id":"F009","name":"Farm cluster 009","crop":"rice","area_ha":2.8,"households":7,"dist_river_m":30855,"flood_exposure":"low"},"geometry":{"type":"Point","coordinates":[35.31822,-17.5264]}},{"type":"Feature","properties":{"id":"F010","name":"Farm cluster 010","crop":"cassava","area_ha":0.8,"households":12,"dist_river_m":9253,"flood_exposure":"medium"},"geometry":{"type":"Point","coordinates":[36.45101,-18.53126]}},{"type":"Feature","properties":{"id":"F011","name":"Farm cluster 011","crop":"maize","area_ha":4.1,"households":7,"dist_river_m":8506,"flood_exposure":"high"},"geometry":{"type":"Point","coordinates":[35.45917,-18.01199]}},{"type":"Feature","properties":{"id":"F013","name":"Farm cluster 013","crop":"rice","area_ha":2.7,"households":13,"dist_river_m":6714,"flood_exposure":"high"},"geometry":{"type":"Point","coordinates":[35.25219,-17.89196]}},{"type":"Feature","properties":{"id":"F014","name":"Farm cluster 014","crop":"maize","area_ha":0.8,"households":18,"dist_river_m":22205,"flood_exposure":"low"},"geometry":{"type":"Point","coordinates":[35.53687,-18.19804]}},{"type":"Feature","properties":{"id":"F015","name":"Farm cluster 015","crop":"rice","area_ha":2,"households":38,"dist_river_m":6637,"flood_exposure":"high"},"geometry":{"type":"Point","coordinates":[35.7941,-18.04596]}},{"type":"Feature","properties":{"id":"F016","name":"Farm cluster 016","crop":"cassava","area_ha":1.8,"households":28,"dist_river_m":9857,"flood_exposure":"medium"},"geometry":{"type":"Point","coordinates":[35.42378,-18.0086]}},{"type":"Feature","properties":{"id":"F017","name":"Farm cluster 017","crop":"rice","area_ha":2.6,"households":42,"dist_river_m":3857,"flood_exposure":"high"},"geometry":{"type":"Point","coordinates":[35.66603,-17.99865]}},{"type":"Feature","properties":{"id":"F018","name":"Farm cluster 018","crop":"sorghum","area_ha":2.8,"households":35,"dist_river_m":11266,"flood_exposure":"medium"},"geometry":{"type":"Point","coordinates":[35.80664,-18.27361]}},{"type":"Feature","properties":{"id":"F019","name":"Farm cluster 019","crop":"maize","area_ha":0.8,"households":5,"dist_river_m":5039,"flood_exposure":"high"},"geometry":{"type":"Point","coordinates":[35.92724,-18.31299]}},{"type":"Feature","properties":{"id":"F020","name":"Farm cluster 020","crop":"cassava","area_ha":2.1,"households":5,"dist_river_m":20477,"flood_exposure":"low"},"geometry":{"type":"Point","coordinates":[36.55981,-18.64936]}},{"type":"Feature","properties":{"id":"F021","name":"Farm cluster 021","crop":"rice","area_ha":3.1,"households":23,"dist_river_m":5823,"flood_exposure":"high"},"geometry":{"type":"Point","coordinates":[35.30696,-17.79119]}},{"type":"Feature","properties":{"id":"F023","name":"Farm cluster 023","crop":"sorghum","area_ha":3.3,"households":42,"dist_river_m":26434,"flood_exposure":"low"},"geometry":{"type":"Point","coordinates":[36.56042,-18.41543]}},{"type":"Feature","properties":{"id":"F024","name":"Farm cluster 024","crop":"cassava","area_ha":0.9,"households":18,"dist_river_m":12429,"flood_exposure":"medium"},"geometry":{"type":"Point","coordinates":[35.91048,-18.39131]}},{"type":"Feature","properties":{"id":"F025","name":"Farm cluster 025","crop":"rice","area_ha":0.7,"households":20,"dist_river_m":7558,"flood_exposure":"high"},"geometry":{"type":"Point","coordinates":[35.74096,-18.16487]}},{"type":"Feature","properties":{"id":"F026","name":"Farm cluster 026","crop":"maize","area_ha":1,"households":40,"dist_river_m":18900,"flood_exposure":"low"},"geometry":{"type":"Point","coordinates":[35.88409,-18.44771]}},{"type":"Feature","properties":{"id":"F027","name":"Farm cluster 027","crop":"sorghum","area_ha":0.6,"households":13,"dist_river_m":14283,"flood_exposure":"medium"},"geometry":{"type":"Point","coordinates":[36.05936,-18.54835]}},{"type":"Feature","properties":{"id":"F028","name":"Farm cluster 028","crop":"cassava","area_ha":3.4,"households":21,"dist_river_m":14643,"flood_exposure":"medium"},"geometry":{"type":"Point","coordinates":[36.17238,-18.62491]}},{"type":"Feature","properties":{"id":"F029","name":"Farm cluster 029","crop":"maize","area_ha":4.1,"households":34,"dist_river_m":6498,"flood_exposure":"high"},"geometry":{"type":"Point","coordinates":[36.30136,-18.4747]}},{"type":"Feature","properties":{"id":"F030","name":"Farm cluster 030","crop":"sorghum","area_ha":0.5,"households":31,"dist_river_m":7776,"flood_exposure":"high"},"geometry":{"type":"Point","coordinates":[35.86109,-18.07971]}},{"type":"Feature","properties":{"id":"F031","name":"Farm cluster 031","crop":"rice","area_ha":2.4,"households":37,"dist_river_m":11284,"flood_exposure":"medium"},"geometry":{"type":"Point","coordinates":[36.352,-18.67783]}},{"type":"Feature","properties":{"id":"F032","name":"Farm cluster 032","crop":"sorghum","area_ha":2.5,"households":5,"dist_river_m":18702,"flood_exposure":"low"},"geometry":{"type":"Point","coordinates":[35.29974,-18.03807]}},{"type":"Feature","properties":{"id":"F033","name":"Farm cluster 033","crop":"maize","area_ha":0.8,"households":37,"dist_river_m":2717,"flood_exposure":"high"},"geometry":{"type":"Point","coordinates":[35.86672,-18.15129]}},{"type":"Feature","properties":{"id":"F034","name":"Farm cluster 034","crop":"cassava","area_ha":2.1,"households":19,"dist_river_m":7364,"flood_exposure":"high"},"geometry":{"type":"Point","coordinates":[35.28873,-17.76258]}},{"type":"Feature","properties":{"id":"F035","name":"Farm cluster 035","crop":"maize","area_ha":1.7,"households":42,"dist_river_m":3877,"flood_exposure":"high"},"geometry":{"type":"Point","coordinates":[36.02933,-18.29641]}},{"type":"Feature","properties":{"id":"F036","name":"Farm cluster 036","crop":"rice","area_ha":3.8,"households":29,"dist_river_m":5812,"flood_exposure":"high"},"geometry":{"type":"Point","coordinates":[36.07746,-18.31577]}},{"type":"Feature","properties":{"id":"F037","name":"Farm cluster 037","crop":"maize","area_ha":4,"households":42,"dist_river_m":31553,"flood_exposure":"low"},"geometry":{"type":"Point","coordinates":[36.67432,-18.53036]}},{"type":"Feature","properties":{"id":"F038","name":"Farm cluster 038","crop":"maize","area_ha":1.2,"households":30,"dist_river_m":14301,"flood_exposure":"medium"},"geometry":{"type":"Point","coordinates":[36.24456,-18.65753]}},{"type":"Feature","properties":{"id":"F039","name":"Farm cluster 039","crop":"sorghum","area_ha":0.7,"households":31,"dist_river_m":13237,"flood_exposure":"medium"},"geometry":{"type":"Point","coordinates":[36.3368,-18.69165]}},{"type":"Feature","properties":{"id":"F041","name":"Farm cluster 041","crop":"rice","area_ha":2.7,"households":9,"dist_river_m":14110,"flood_exposure":"medium"},"geometry":{"type":"Point","coordinates":[35.55118,-17.82862]}},{"type":"Feature","properties":{"id":"F042","name":"Farm cluster 042","crop":"rice","area_ha":1.2,"households":5,"dist_river_m":19449,"flood_exposure":"low"},"geometry":{"type":"Point","coordinates":[35.22748,-18.0109]}},{"type":"Feature","properties":{"id":"F043","name":"Farm cluster 043","crop":"maize","area_ha":3.4,"households":19,"dist_river_m":2706,"flood_exposure":"high"},"geometry":{"type":"Point","coordinates":[35.73515,-18.05235]}},{"type":"Feature","properties":{"id":"F045","name":"Farm cluster 045","crop":"sorghum","area_ha":1.5,"households":28,"dist_river_m":6962,"flood_exposure":"high"},"geometry":{"type":"Point","coordinates":[35.33764,-17.93812]}},{"type":"Feature","properties":{"id":"F046","name":"Farm cluster 046","crop":"rice","area_ha":4.4,"households":13,"dist_river_m":12734,"flood_exposure":"medium"},"geometry":{"type":"Point","coordinates":[35.69288,-18.19102]}},{"type":"Feature","properties":{"id":"F047","name":"Farm cluster 047","crop":"cassava","area_ha":2.1,"households":4,"dist_river_m":1901,"flood_exposure":"high"},"geometry":{"type":"Point","coordinates":[36.05966,-18.39523]}},{"type":"Feature","properties":{"id":"F048","name":"Farm cluster 048","crop":"rice","area_ha":4,"households":14,"dist_river_m":9571,"flood_exposure":"medium"},"geometry":{"type":"Point","coordinates":[35.8406,-18.28547]}},{"type":"Feature","properties":{"id":"F050","name":"Farm cluster 050","crop":"sorghum","area_ha":3.1,"households":15,"dist_river_m":9100,"flood_exposure":"medium"},"geometry":{"type":"Point","coordinates":[35.86364,-18.30236]}},{"type":"Feature","properties":{"id":"F051","name":"Farm cluster 051","crop":"sorghum","area_ha":1.8,"households":28,"dist_river_m":18837,"flood_exposure":"low"},"geometry":{"type":"Point","coordinates":[35.64184,-17.82512]}},{"type":"Feature","properties":{"id":"F052","name":"Farm cluster 052","crop":"cassava","area_ha":3,"households":15,"dist_river_m":9874,"flood_exposure":"medium"},"geometry":{"type":"Point","coordinates":[35.26577,-17.72037]}},{"type":"Feature","properties":{"id":"F053","name":"Farm cluster 053","crop":"cassava","area_ha":2.1,"households":15,"dist_river_m":12875,"flood_exposure":"medium"},"geometry":{"type":"Point","coordinates":[35.49851,-18.07587]}},{"type":"Feature","properties":{"id":"F054","name":"Farm cluster 054","crop":"sorghum","area_ha":0.7,"households":39,"dist_river_m":8003,"flood_exposure":"high"},"geometry":{"type":"Point","coordinates":[35.60609,-18.08867]}},{"type":"Feature","properties":{"id":"F055","name":"Farm cluster 055","crop":"sorghum","area_ha":2.7,"households":4,"dist_river_m":17719,"flood_exposure":"medium"},"geometry":{"type":"Point","coordinates":[35.23951,-17.99926]}},{"type":"Feature","properties":{"id":"F056","name":"Farm cluster 056","crop":"maize","area_ha":1.8,"households":41,"dist_river_m":5152,"flood_exposure":"high"},"geometry":{"type":"Point","coordinates":[35.03553,-17.60318]}},{"type":"Feature","properties":{"id":"F057","name":"Farm cluster 057","crop":"maize","area_ha":4.2,"households":9,"dist_river_m":4549,"flood_exposure":"high"},"geometry":{"type":"Point","coordinates":[35.60222,-18.04965]}},{"type":"Feature","properties":{"id":"F058","name":"Farm cluster 058","crop":"maize","area_ha":3.6,"households":33,"dist_river_m":7629,"flood_exposure":"high"},"geometry":{"type":"Point","coordinates":[35.91934,-18.13985]}},{"type":"Feature","properties":{"id":"F059","name":"Farm cluster 059","crop":"rice","area_ha":3.2,"households":39,"dist_river_m":10686,"flood_exposure":"medium"},"geometry":{"type":"Point","coordinates":[34.94422,-17.71624]}},{"type":"Feature","properties":{"id":"F060","name":"Farm cluster 060","crop":"sorghum","area_ha":3.2,"households":15,"dist_river_m":4577,"flood_exposure":"high"},"geometry":{"type":"Point","coordinates":[35.21289,-17.7436]}},{"type":"Feature","properties":{"id":"F061","name":"Farm cluster 061","crop":"maize","area_ha":2.7,"households":7,"dist_river_m":10934,"flood_exposure":"medium"},"geometry":{"type":"Point","coordinates":[35.3563,-17.76703]}},{"type":"Feature","properties":{"id":"F062","name":"Farm cluster 062","crop":"maize","area_ha":2.6,"households":13,"dist_river_m":29108,"flood_exposure":"low"},"geometry":{"type":"Point","coordinates":[36.05943,-18.7154]}},{"type":"Feature","properties":{"id":"F063","name":"Farm cluster 063","crop":"sorghum","area_ha":3.5,"households":39,"dist_river_m":5755,"flood_exposure":"high"},"geometry":{"type":"Point","coordinates":[35.19175,-17.71705]}},{"type":"Feature","properties":{"id":"F064","name":"Farm cluster 064","crop":"cassava","area_ha":2,"households":11,"dist_river_m":2650,"flood_exposure":"high"},"geometry":{"type":"Point","coordinates":[35.49981,-17.97258]}},{"type":"Feature","properties":{"id":"F065","name":"Farm cluster 065","crop":"rice","area_ha":2.9,"households":25,"dist_river_m":6597,"flood_exposure":"high"},"geometry":{"type":"Point","coordinates":[36.12152,-18.3457]}},{"type":"Feature","properties":{"id":"F066","name":"Farm cluster 066","crop":"rice","area_ha":2.7,"households":34,"dist_river_m":17725,"flood_exposure":"medium"},"geometry":{"type":"Point","coordinates":[35.19277,-17.97315]}},{"type":"Feature","properties":{"id":"F067","name":"Farm cluster 067","crop":"sorghum","area_ha":0.6,"households":10,"dist_river_m":15828,"flood_exposure":"medium"},"geometry":{"type":"Point","coordinates":[36.51014,-18.65079]}},{"type":"Feature","properties":{"id":"F068","name":"Farm cluster 068","crop":"cassava","area_ha":0.8,"households":11,"dist_river_m":26106,"flood_exposure":"low"},"geometry":{"type":"Point","coordinates":[36.06258,-18.04225]}},{"type":"Feature","properties":{"id":"F070","name":"Farm cluster 070","crop":"cassava","area_ha":0.9,"households":3,"dist_river_m":12451,"flood_exposure":"medium"},"geometry":{"type":"Point","coordinates":[36.34501,-18.43607]}},{"type":"Feature","properties":{"id":"F071","name":"Farm cluster 071","crop":"maize","area_ha":2.2,"households":13,"dist_river_m":21925,"flood_exposure":"low"},"geometry":{"type":"Point","coordinates":[35.82499,-18.43116]}},{"type":"Feature","properties":{"id":"F072","name":"Farm cluster 072","crop":"rice","area_ha":3,"households":39,"dist_river_m":9048,"flood_exposure":"medium"},"geometry":{"type":"Point","coordinates":[35.18866,-17.87605]}},{"type":"Feature","properties":{"id":"F073","name":"Farm cluster 073","crop":"cassava","area_ha":2.5,"households":23,"dist_river_m":1543,"flood_exposure":"high"},"geometry":{"type":"Point","coordinates":[35.02958,-17.64158]}},{"type":"Feature","properties":{"id":"F074","name":"Farm cluster 074","crop":"rice","area_ha":3.2,"households":27,"dist_river_m":13668,"flood_exposure":"medium"},"geometry":{"type":"Point","coordinates":[35.52747,-17.82168]}},{"type":"Feature","properties":{"id":"F075","name":"Farm cluster 075","crop":"cassava","area_ha":1.7,"households":7,"dist_river_m":14802,"flood_exposure":"medium"},"geometry":{"type":"Point","coordinates":[35.75067,-17.93321]}},{"type":"Feature","properties":{"id":"F076","name":"Farm cluster 076","crop":"rice","area_ha":3.4,"households":19,"dist_river_m":4511,"flood_exposure":"high"},"geometry":{"type":"Point","coordinates":[35.31256,-17.8091]}},{"type":"Feature","properties":{"id":"F077","name":"Farm cluster 077","crop":"sorghum","area_ha":0.6,"households":30,"dist_river_m":14993,"flood_exposure":"medium"},"geometry":{"type":"Point","coordinates":[35.54239,-18.12471]}},{"type":"Feature","properties":{"id":"F078","name":"Farm cluster 078","crop":"maize","area_ha":3.6,"households":32,"dist_river_m":11300,"flood_exposure":"medium"},"geometry":{"type":"Point","coordinates":[36.20506,-18.36266]}},{"type":"Feature","properties":{"id":"F079","name":"Farm cluster 079","crop":"cassava","area_ha":2,"households":5,"dist_river_m":8322,"flood_exposure":"high"},"geometry":{"type":"Point","coordinates":[36.32333,-18.46715]}},{"type":"Feature","properties":{"id":"F081","name":"Farm cluster 081","crop":"rice","area_ha":3,"households":4,"dist_river_m":16848,"flood_exposure":"medium"},"geometry":{"type":"Point","coordinates":[35.92252,-18.45689]}},{"type":"Feature","properties":{"id":"F082","name":"Farm cluster 082","crop":"rice","area_ha":2.2,"households":25,"dist_river_m":19399,"flood_exposure":"low"},"geometry":{"type":"Point","coordinates":[36.01112,-18.5683]}},{"type":"Feature","properties":{"id":"F083","name":"Farm cluster 083","crop":"maize","area_ha":3.7,"households":18,"dist_river_m":1677,"flood_exposure":"high"},"geometry":{"type":"Point","coordinates":[35.8723,-18.17043]}},{"type":"Feature","properties":{"id":"F084","name":"Farm cluster 084","crop":"maize","area_ha":4.5,"households":3,"dist_river_m":14411,"flood_exposure":"medium"},"geometry":{"type":"Point","coordinates":[36.31864,-18.69568]}},{"type":"Feature","properties":{"id":"F085","name":"Farm cluster 085","crop":"cassava","area_ha":3.4,"households":27,"dist_river_m":4346,"flood_exposure":"high"},"geometry":{"type":"Point","coordinates":[35.52338,-18.00095]}},{"type":"Feature","properties":{"id":"F086","name":"Farm cluster 086","crop":"sorghum","area_ha":4.2,"households":38,"dist_river_m":11300,"flood_exposure":"medium"},"geometry":{"type":"Point","coordinates":[36.2337,-18.38843]}},{"type":"Feature","properties":{"id":"F087","name":"Farm cluster 087","crop":"rice","area_ha":2.8,"households":15,"dist_river_m":21005,"flood_exposure":"low"},"geometry":{"type":"Point","coordinates":[35.29723,-17.6198]}},{"type":"Feature","properties":{"id":"F088","name":"Farm cluster 088","crop":"cassava","area_ha":3.3,"households":29,"dist_river_m":11224,"flood_exposure":"medium"},"geometry":{"type":"Point","coordinates":[35.99677,-18.17038]}},{"type":"Feature","properties":{"id":"F089","name":"Farm cluster 089","crop":"maize","area_ha":3.1,"households":31,"dist_river_m":4156,"flood_exposure":"high"},"geometry":{"type":"Point","coordinates":[35.30798,-17.80998]}},{"type":"Feature","properties":{"id":"F090","name":"Farm cluster 090","crop":"cassava","area_ha":3.6,"households":36,"dist_river_m":20227,"flood_exposure":"low"},"geometry":{"type":"Point","coordinates":[34.71306,-17.58548]}},{"type":"Feature","properties":{"id":"F091","name":"Farm cluster 091","crop":"sorghum","area_ha":2.2,"households":16,"dist_river_m":3141,"flood_exposure":"high"},"geometry":{"type":"Point","coordinates":[35.18147,-17.73879]}},{"type":"Feature","properties":{"id":"F092","name":"Farm cluster 092","crop":"maize","area_ha":3.6,"households":25,"dist_river_m":19113,"flood_exposure":"low"},"geometry":{"type":"Point","coordinates":[35.80719,-18.37661]}},{"type":"Feature","properties":{"id":"F093","name":"Farm cluster 093","crop":"rice","area_ha":3.4,"households":37,"dist_river_m":11575,"flood_exposure":"medium"},"geometry":{"type":"Point","coordinates":[35.26625,-17.70218]}},{"type":"Feature","properties":{"id":"F094","name":"Farm cluster 094","crop":"rice","area_ha":1.8,"households":6,"dist_river_m":23451,"flood_exposure":"low"},"geometry":{"type":"Point","coordinates":[35.15724,-17.48648]}},{"type":"Feature","properties":{"id":"F095","name":"Farm cluster 095","crop":"maize","area_ha":1.1,"households":12,"dist_river_m":4989,"flood_exposure":"high"},"geometry":{"type":"Point","coordinates":[34.97448,-17.67337]}},{"type":"Feature","properties":{"id":"F097","name":"Farm cluster 097","crop":"cassava","area_ha":1.9,"households":37,"dist_river_m":15383,"flood_exposure":"medium"},"geometry":{"type":"Point","coordinates":[35.13358,-17.56341]}},{"type":"Feature","properties":{"id":"F098","name":"Farm cluster 098","crop":"sorghum","area_ha":1.4,"households":15,"dist_river_m":27022,"flood_exposure":"low"},"geometry":{"type":"Point","coordinates":[35.1937,-17.47451]}},{"type":"Feature","properties":{"id":"F099","name":"Farm cluster 099","crop":"cassava","area_ha":0.6,"households":38,"dist_river_m":11774,"flood_exposure":"medium"},"geometry":{"type":"Point","coordinates":[35.90893,-18.07542]}},{"type":"Feature","properties":{"id":"F100","name":"Farm cluster 100","crop":"sorghum","area_ha":2.8,"households":35,"dist_river_m":6513,"flood_exposure":"high"},"geometry":{"type":"Point","coordinates":[35.90086,-18.30583]}},{"type":"Feature","properties":{"id":"F101","name":"Farm cluster 101","crop":"rice","area_ha":2.1,"households":26,"dist_river_m":9483,"flood_exposure":"medium"},"geometry":{"type":"Point","coordinates":[34.85647,-17.62714]}},{"type":"Feature","properties":{"id":"F102","name":"Farm cluster 102","crop":"maize","area_ha":1.9,"households":32,"dist_river_m":17714,"flood_exposure":"medium"},"geometry":{"type":"Point","coordinates":[35.53567,-17.78492]}},{"type":"Feature","properties":{"id":"F103","name":"Farm cluster 103","crop":"rice","area_ha":2.5,"households":18,"dist_river_m":4689,"flood_exposure":"high"},"geometry":{"type":"Point","coordinates":[35.15403,-17.80612]}},{"type":"Feature","properties":{"id":"F104","name":"Farm cluster 104","crop":"cassava","area_ha":3.7,"households":28,"dist_river_m":10231,"flood_exposure":"medium"},"geometry":{"type":"Point","coordinates":[36.05247,-18.49192]}},{"type":"Feature","properties":{"id":"F105","name":"Farm cluster 105","crop":"rice","area_ha":3,"households":36,"dist_river_m":19067,"flood_exposure":"low"},"geometry":{"type":"Point","coordinates":[35.48789,-17.74839]}},{"type":"Feature","properties":{"id":"F106","name":"Farm cluster 106","crop":"sorghum","area_ha":3,"households":31,"dist_river_m":5947,"flood_exposure":"high"},"geometry":{"type":"Point","coordinates":[35.73684,-18.14529]}},{"type":"Feature","properties":{"id":"F107","name":"Farm cluster 107","crop":"maize","area_ha":1.2,"households":41,"dist_river_m":11829,"flood_exposure":"medium"},"geometry":{"type":"Point","coordinates":[36.10722,-18.2681]}},{"type":"Feature","properties":{"id":"F108","name":"Farm cluster 108","crop":"sorghum","area_ha":3.3,"households":13,"dist_river_m":30896,"flood_exposure":"low"},"geometry":{"type":"Point","coordinates":[35.69223,-18.41546]}},{"type":"Feature","properties":{"id":"F109","name":"Farm cluster 109","crop":"cassava","area_ha":1.5,"households":37,"dist_river_m":22823,"flood_exposure":"low"},"geometry":{"type":"Point","coordinates":[35.68663,-17.80964]}},{"type":"Feature","properties":{"id":"F110","name":"Farm cluster 110","crop":"cassava","area_ha":1.2,"households":40,"dist_river_m":11069,"flood_exposure":"medium"},"geometry":{"type":"Point","coordinates":[35.64194,-17.90761]}},{"type":"Feature","properties":{"id":"F111","name":"Farm cluster 111","crop":"sorghum","area_ha":0.8,"households":20,"dist_river_m":22321,"flood_exposure":"low"},"geometry":{"type":"Point","coordinates":[35.53289,-17.73725]}},{"type":"Feature","properties":{"id":"F112","name":"Farm cluster 112","crop":"rice","area_ha":3.3,"households":3,"dist_river_m":9796,"flood_exposure":"medium"},"geometry":{"type":"Point","coordinates":[35.17971,-17.87837]}},{"type":"Feature","properties":{"id":"F113","name":"Farm cluster 113","crop":"maize","area_ha":2.3,"households":18,"dist_river_m":8986,"flood_exposure":"high"},"geometry":{"type":"Point","coordinates":[36.05707,-18.48064]}},{"type":"Feature","properties":{"id":"F114","name":"Farm cluster 114","crop":"cassava","area_ha":3.1,"households":40,"dist_river_m":7639,"flood_exposure":"high"},"geometry":{"type":"Point","coordinates":[35.03193,-17.5702]}},{"type":"Feature","properties":{"id":"F115","name":"Farm cluster 115","crop":"maize","area_ha":3.8,"households":12,"dist_river_m":3612,"flood_exposure":"high"},"geometry":{"type":"Point","coordinates":[35.91841,-18.28553]}},{"type":"Feature","properties":{"id":"F116","name":"Farm cluster 116","crop":"rice","area_ha":4.3,"households":8,"dist_river_m":3879,"flood_exposure":"high"},"geometry":{"type":"Point","coordinates":[35.93048,-18.30108]}},{"type":"Feature","properties":{"id":"F117","name":"Farm cluster 117","crop":"rice","area_ha":1.9,"households":26,"dist_river_m":3576,"flood_exposure":"high"},"geometry":{"type":"Point","coordinates":[35.1149,-17.76858]}},{"type":"Feature","properties":{"id":"F118","name":"Farm cluster 118","crop":"sorghum","area_ha":1,"households":11,"dist_river_m":6215,"flood_exposure":"high"},"geometry":{"type":"Point","coordinates":[36.07743,-18.31076]}},{"type":"Feature","properties":{"id":"F119","name":"Farm cluster 119","crop":"cassava","area_ha":3.9,"households":6,"dist_river_m":4140,"flood_exposure":"high"},"geometry":{"type":"Point","coordinates":[35.39979,-17.93955]}},{"type":"Feature","properties":{"id":"F120","name":"Farm cluster 120","crop":"sorghum","area_ha":2.8,"households":28,"dist_river_m":19987,"flood_exposure":"low"},"geometry":{"type":"Point","coordinates":[35.874,-17.95212]}},{"type":"Feature","properties":{"id":"F121","name":"Farm cluster 121","crop":"sorghum","area_ha":2.6,"households":15,"dist_river_m":6902,"flood_exposure":"high"},"geometry":{"type":"Point","coordinates":[35.13258,-17.81625]}},{"type":"Feature","properties":{"id":"F122","name":"Farm cluster 122","crop":"sorghum","area_ha":4.1,"households":30,"dist_river_m":2845,"flood_exposure":"high"},"geometry":{"type":"Point","coordinates":[35.53057,-17.9893]}},{"type":"Feature","properties":{"id":"F123","name":"Farm cluster 123","crop":"rice","area_ha":2.7,"households":5,"dist_river_m":28214,"flood_exposure":"low"},"geometry":{"type":"Point","coordinates":[36.48009,-18.34358]}},{"type":"Feature","properties":{"id":"F124","name":"Farm cluster 124","crop":"maize","area_ha":1,"households":34,"dist_river_m":3325,"flood_exposure":"high"},"geometry":{"type":"Point","coordinates":[34.87041,-17.55984]}},{"type":"Feature","properties":{"id":"F125","name":"Farm cluster 125","crop":"rice","area_ha":1.9,"households":16,"dist_river_m":1665,"flood_exposure":"high"},"geometry":{"type":"Point","coordinates":[34.96466,-17.58492]}},{"type":"Feature","properties":{"id":"F126","name":"Farm cluster 126","crop":"sorghum","area_ha":4.4,"households":11,"dist_river_m":11914,"flood_exposure":"medium"},"geometry":{"type":"Point","coordinates":[35.947,-18.41782]}},{"type":"Feature","properties":{"id":"F127","name":"Farm cluster 127","crop":"maize","area_ha":1.9,"households":28,"dist_river_m":24043,"flood_exposure":"low"},"geometry":{"type":"Point","coordinates":[35.2641,-17.56526]}},{"type":"Feature","properties":{"id":"F128","name":"Farm cluster 128","crop":"maize","area_ha":3.1,"households":34,"dist_river_m":7161,"flood_exposure":"high"},"geometry":{"type":"Point","coordinates":[36.13844,-18.35395]}},{"type":"Feature","properties":{"id":"F129","name":"Farm cluster 129","crop":"rice","area_ha":4.4,"households":27,"dist_river_m":26375,"flood_exposure":"low"},"geometry":{"type":"Point","coordinates":[36.49914,-18.37179]}},{"type":"Feature","properties":{"id":"F130","name":"Farm cluster 130","crop":"cassava","area_ha":2.6,"households":31,"dist_river_m":10182,"flood_exposure":"medium"},"geometry":{"type":"Point","coordinates":[36.00463,-18.44825]}},{"type":"Feature","properties":{"id":"F131","name":"Farm cluster 131","crop":"cassava","area_ha":4.5,"households":3,"dist_river_m":14596,"flood_exposure":"medium"},"geometry":{"type":"Point","coordinates":[35.22436,-17.64212]}},{"type":"Feature","properties":{"id":"F132","name":"Farm cluster 132","crop":"sorghum","area_ha":1.2,"households":24,"dist_river_m":10992,"flood_exposure":"medium"},"geometry":{"type":"Point","coordinates":[36.10627,-18.54979]}},{"type":"Feature","properties":{"id":"F133","name":"Farm cluster 133","crop":"cassava","area_ha":4.4,"households":14,"dist_river_m":4581,"flood_exposure":"high"},"geometry":{"type":"Point","coordinates":[35.01392,-17.70198]}},{"type":"Feature","properties":{"id":"F134","name":"Farm cluster 134","crop":"rice","area_ha":2.7,"households":28,"dist_river_m":2307,"flood_exposure":"high"},"geometry":{"type":"Point","coordinates":[35.26668,-17.85344]}},{"type":"Feature","properties":{"id":"F135","name":"Farm cluster 135","crop":"rice","area_ha":2.5,"households":25,"dist_river_m":12329,"flood_exposure":"medium"},"geometry":{"type":"Point","coordinates":[35.11946,-17.58816]}},{"type":"Feature","properties":{"id":"F136","name":"Farm cluster 136","crop":"sorghum","area_ha":2.5,"households":37,"dist_river_m":17619,"flood_exposure":"medium"},"geometry":{"type":"Point","coordinates":[34.86396,-17.73149]}},{"type":"Feature","properties":{"id":"F137","name":"Farm cluster 137","crop":"cassava","area_ha":4.3,"households":8,"dist_river_m":4461,"flood_exposure":"high"},"geometry":{"type":"Point","coordinates":[35.70478,-18.11026]}},{"type":"Feature","properties":{"id":"F138","name":"Farm cluster 138","crop":"sorghum","area_ha":2.2,"households":39,"dist_river_m":15784,"flood_exposure":"medium"},"geometry":{"type":"Point","coordinates":[35.82097,-17.96494]}},{"type":"Feature","properties":{"id":"F139","name":"Farm cluster 139","crop":"rice","area_ha":0.6,"households":14,"dist_river_m":4382,"flood_exposure":"high"},"geometry":{"type":"Point","coordinates":[36.33251,-18.51176]}},{"type":"Feature","properties":{"id":"F140","name":"Farm cluster 140","crop":"maize","area_ha":3.3,"households":36,"dist_river_m":6359,"flood_exposure":"high"},"geometry":{"type":"Point","coordinates":[34.84038,-17.54442]}},{"type":"Feature","properties":{"id":"F141","name":"Farm cluster 141","crop":"sorghum","area_ha":1.3,"households":35,"dist_river_m":9198,"flood_exposure":"medium"},"geometry":{"type":"Point","coordinates":[36.37119,-18.48219]}},{"type":"Feature","properties":{"id":"F142","name":"Farm cluster 142","crop":"sorghum","area_ha":3.3,"households":36,"dist_river_m":10050,"flood_exposure":"medium"},"geometry":{"type":"Point","coordinates":[34.80547,-17.55517]}},{"type":"Feature","properties":{"id":"F143","name":"Farm cluster 143","crop":"rice","area_ha":1,"households":39,"dist_river_m":1571,"flood_exposure":"high"},"geometry":{"type":"Point","coordinates":[35.06322,-17.70765]}},{"type":"Feature","properties":{"id":"F144","name":"Farm cluster 144","crop":"rice","area_ha":4.2,"households":14,"dist_river_m":1872,"flood_exposure":"high"},"geometry":{"type":"Point","coordinates":[34.96072,-17.62415]}},{"type":"Feature","properties":{"id":"F145","name":"Farm cluster 145","crop":"cassava","area_ha":3.3,"households":32,"dist_river_m":7251,"flood_exposure":"high"},"geometry":{"type":"Point","coordinates":[35.0295,-17.74738]}},{"type":"Feature","properties":{"id":"F146","name":"Farm cluster 146","crop":"cassava","area_ha":3.8,"households":27,"dist_river_m":16137,"flood_exposure":"medium"},"geometry":{"type":"Point","coordinates":[35.95938,-18.48129]}},{"type":"Feature","properties":{"id":"F147","name":"Farm cluster 147","crop":"sorghum","area_ha":2.3,"households":4,"dist_river_m":11420,"flood_exposure":"medium"},"geometry":{"type":"Point","coordinates":[35.56352,-17.86159]}},{"type":"Feature","properties":{"id":"F148","name":"Farm cluster 148","crop":"sorghum","area_ha":1.7,"households":32,"dist_river_m":14291,"flood_exposure":"medium"},"geometry":{"type":"Point","coordinates":[36.2127,-18.33253]}},{"type":"Feature","properties":{"id":"F149","name":"Farm cluster 149","crop":"rice","area_ha":3.3,"households":11,"dist_river_m":5289,"flood_exposure":"high"},"geometry":{"type":"Point","coordinates":[36.28448,-18.58596]}},{"type":"Feature","properties":{"id":"F150","name":"Farm cluster 150","crop":"cassava","area_ha":2.2,"households":39,"dist_river_m":17156,"flood_exposure":"medium"},"geometry":{"type":"Point","coordinates":[35.27619,-18.0112]}},{"type":"Feature","properties":{"id":"F151","name":"Farm cluster 151","crop":"sorghum","area_ha":1.7,"households":35,"dist_river_m":5080,"flood_exposure":"high"},"geometry":{"type":"Point","coordinates":[35.87293,-18.12669]}},{"type":"Feature","properties":{"id":"F152","name":"Farm cluster 152","crop":"maize","area_ha":3,"households":16,"dist_river_m":18871,"flood_exposure":"low"},"geometry":{"type":"Point","coordinates":[35.60439,-17.80626]}},{"type":"Feature","properties":{"id":"F153","name":"Farm cluster 153","crop":"sorghum","area_ha":0.6,"households":8,"dist_river_m":4423,"flood_exposure":"high"},"geometry":{"type":"Point","coordinates":[35.35576,-17.83227]}},{"type":"Feature","properties":{"id":"F154","name":"Farm cluster 154","crop":"sorghum","area_ha":0.6,"households":20,"dist_river_m":16543,"flood_exposure":"medium"},"geometry":{"type":"Point","coordinates":[35.7263,-17.9001]}},{"type":"Feature","properties":{"id":"F155","name":"Farm cluster 155","crop":"cassava","area_ha":1.2,"households":21,"dist_river_m":5193,"flood_exposure":"high"},"geometry":{"type":"Point","coordinates":[36.10555,-18.34871]}},{"type":"Feature","properties":{"id":"F156","name":"Farm cluster 156","crop":"rice","area_ha":3.8,"households":14,"dist_river_m":15056,"flood_exposure":"medium"},"geometry":{"type":"Point","coordinates":[36.28297,-18.68441]}},{"type":"Feature","properties":{"id":"F157","name":"Farm cluster 157","crop":"cassava","area_ha":3.3,"households":33,"dist_river_m":12143,"flood_exposure":"medium"},"geometry":{"type":"Point","coordinates":[34.91151,-17.70598]}},{"type":"Feature","properties":{"id":"F158","name":"Farm cluster 158","crop":"cassava","area_ha":3.5,"households":37,"dist_river_m":18713,"flood_exposure":"low"},"geometry":{"type":"Point","coordinates":[35.15066,-17.95652]}},{"type":"Feature","properties":{"id":"F159","name":"Farm cluster 159","crop":"sorghum","area_ha":4.2,"households":38,"dist_river_m":12374,"flood_exposure":"medium"},"geometry":{"type":"Point","coordinates":[35.74589,-17.95612]}},{"type":"Feature","properties":{"id":"F160","name":"Farm cluster 160","crop":"rice","area_ha":4.2,"households":28,"dist_river_m":8849,"flood_exposure":"high"},"geometry":{"type":"Point","coordinates":[36.03118,-18.45564]}},{"type":"Feature","properties":{"id":"F161","name":"Farm cluster 161","crop":"maize","area_ha":0.6,"households":23,"dist_river_m":2253,"flood_exposure":"high"},"geometry":{"type":"Point","coordinates":[35.44163,-17.94065]}},{"type":"Feature","properties":{"id":"F162","name":"Farm cluster 162","crop":"cassava","area_ha":1.4,"households":5,"dist_river_m":27108,"flood_exposure":"low"},"geometry":{"type":"Point","coordinates":[35.76464,-18.43846]}},{"type":"Feature","properties":{"id":"F163","name":"Farm cluster 163","crop":"rice","area_ha":0.6,"households":19,"dist_river_m":12354,"flood_exposure":"medium"},"geometry":{"type":"Point","coordinates":[36.17176,-18.60135]}},{"type":"Feature","properties":{"id":"F164","name":"Farm cluster 164","crop":"rice","area_ha":2.6,"households":19,"dist_river_m":10714,"flood_exposure":"medium"},"geometry":{"type":"Point","coordinates":[35.72657,-18.18977]}},{"type":"Feature","properties":{"id":"F165","name":"Farm cluster 165","crop":"sorghum","area_ha":0.9,"households":37,"dist_river_m":5303,"flood_exposure":"high"},"geometry":{"type":"Point","coordinates":[35.25767,-17.76482]}},{"type":"Feature","properties":{"id":"F166","name":"Farm cluster 166","crop":"sorghum","area_ha":3.6,"households":7,"dist_river_m":4004,"flood_exposure":"high"},"geometry":{"type":"Point","coordinates":[35.84668,-18.21891]}},{"type":"Feature","properties":{"id":"F167","name":"Farm cluster 167","crop":"rice","area_ha":4.3,"households":13,"dist_river_m":7661,"flood_exposure":"high"},"geometry":{"type":"Point","coordinates":[35.26517,-17.91031]}},{"type":"Feature","properties":{"id":"F168","name":"Farm cluster 168","crop":"rice","area_ha":3.2,"households":8,"dist_river_m":2776,"flood_exposure":"high"},"geometry":{"type":"Point","coordinates":[36.34934,-18.59286]}},{"type":"Feature","properties":{"id":"F169","name":"Farm cluster 169","crop":"rice","area_ha":4.2,"households":20,"dist_river_m":13105,"flood_exposure":"medium"},"geometry":{"type":"Point","coordinates":[35.89685,-18.38741]}},{"type":"Feature","properties":{"id":"F170","name":"Farm cluster 170","crop":"maize","area_ha":2.5,"households":34,"dist_river_m":21404,"flood_exposure":"low"},"geometry":{"type":"Point","coordinates":[35.25772,-17.5898]}},{"type":"Feature","properties":{"id":"F171","name":"Farm cluster 171","crop":"rice","area_ha":2.9,"households":21,"dist_river_m":7592,"flood_exposure":"high"},"geometry":{"type":"Point","coordinates":[35.4422,-17.99465]}},{"type":"Feature","properties":{"id":"F172","name":"Farm cluster 172","crop":"rice","area_ha":2.6,"households":6,"dist_river_m":11907,"flood_exposure":"medium"},"geometry":{"type":"Point","coordinates":[35.73633,-18.21163]}},{"type":"Feature","properties":{"id":"F173","name":"Farm cluster 173","crop":"sorghum","area_ha":1.6,"households":31,"dist_river_m":15042,"flood_exposure":"medium"},"geometry":{"type":"Point","coordinates":[36.06031,-18.5586]}},{"type":"Feature","properties":{"id":"F174","name":"Farm cluster 174","crop":"sorghum","area_ha":2.7,"households":5,"dist_river_m":2600,"flood_exposure":"high"},"geometry":{"type":"Point","coordinates":[35.58743,-17.96484]}},{"type":"Feature","properties":{"id":"F175","name":"Farm cluster 175","crop":"maize","area_ha":1.1,"households":20,"dist_river_m":3694,"flood_exposure":"high"},"geometry":{"type":"Point","coordinates":[36.32059,-18.58782]}},{"type":"Feature","properties":{"id":"F176","name":"Farm cluster 176","crop":"rice","area_ha":2.2,"households":39,"dist_river_m":11682,"flood_exposure":"medium"},"geometry":{"type":"Point","coordinates":[35.8077,-18.2801]}},{"type":"Feature","properties":{"id":"F177","name":"Farm cluster 177","crop":"sorghum","area_ha":1.1,"households":21,"dist_river_m":20028,"flood_exposure":"low"},"geometry":{"type":"Point","coordinates":[35.0542,-17.90811]}},{"type":"Feature","properties":{"id":"F178","name":"Farm cluster 178","crop":"sorghum","area_ha":1.4,"households":33,"dist_river_m":6823,"flood_exposure":"high"},"geometry":{"type":"Point","coordinates":[35.8516,-18.26061]}},{"type":"Feature","properties":{"id":"F179","name":"Farm cluster 179","crop":"sorghum","area_ha":1.6,"households":30,"dist_river_m":18222,"flood_exposure":"low"},"geometry":{"type":"Point","coordinates":[35.47004,-18.11561]}}]}
